[{"OBJECT_NAME":"STARLINK-34126","OBJECT_ID":"2025-107V","EPOCH":"2026-03-09T09:37:39.870624","MEAN_MOTION":15.27616604,"ECCENTRICITY":0.00015505,"INCLINATION":42.9998,"RA_OF_ASC_NODE":203.4065,"ARG_OF_PERICENTER":276.3985,"MEAN_ANOMALY":83.669,"EPHEMERIS_TYPE":0,"CLASSIFICATION_TYPE":"U","NORAD_CAT_ID":64083,"ELEMENT_SET_NO":999,"REV_AT_EPOCH":4498,"BSTAR":0.00092823773,"MEAN_MOTION_DOT":0.00025398,"MEAN_MOTION_DDOT":0},{"OBJECT_NAME":"BREEZE-M DEB","OBJECT_ID":"2008-011AY","EPOCH":"2026-03-09T09:59:40.447104","MEAN_MOTION":5.27837349,"ECCENTRICITY":0.52370057,"INCLINATION":47.9937,"RA_OF_ASC_NODE":123.2664,"ARG_OF_PERICENTER":97.4342,"MEAN_ANOMALY":322.2822,"EPHEMERIS_TYPE":0,"CLASSIFICATION_TYPE":"U","NORAD_CAT_ID":38601,"ELEMENT_SET_NO":999,"REV_AT_EPOCH":23187,"BSTAR":0.0027334805,"MEAN_MOTION_DOT":0.00032609,"MEAN_MOTION_DDOT":0}]
